{"fetched_at":"2026-07-07T18:29:06.539Z","source":"https://celestrak.org/NORAD/elements/gp.php?GROUP=oneweb&FORMAT=JSON","constellation":"oneweb","records":[{"OBJECT_NAME":"ONEWEB-0033","OBJECT_ID":"2020-008M","EPOCH":"2026-07-06T23:33:33.731424","CLASSIFICATION_TYPE":"U","MEAN_MOTION":13.10372028,"ECCENTRICITY":0.0002104,"INCLINATION":87.8816,"RA_OF_ASC_NODE":32.3324,"ARG_OF_PERICENTER":98.9742,"MEAN_ANOMALY":261.1623,"EPHEMERIS_TYPE":0,"NORAD_CAT_ID":45142,"ELEMENT_SET_NO":999,"REV_AT_EPOCH":31080,"BSTAR":-0.0018778,"MEAN_MOTION_DOT":-0.00000643,"MEAN_MOTION_DDOT":0},{"OBJECT_NAME":"ONEWEB-0035","OBJECT_ID":"2020-008N","EPOCH":"2026-07-07T00:03:08.904096","CLASSIFICATION_TYPE":"U","MEAN_MOTION":13.10355539,"ECCENTRICITY":0.0001939,"INCLINATION":87.8819,"RA_OF_ASC_NODE":32.3213,"ARG_OF_PERICENTER":87.8332,"MEAN_ANOMALY":272.3017,"EPHEMERIS_TYPE":0,"NORAD_CAT_ID":45143,"ELEMENT_SET_NO":999,"REV_AT_EPOCH":31053,"BSTAR":-0.0050749,"MEAN_MOTION_DOT":-0.00001758,"MEAN_MOTION_DDOT":0},{"OBJECT_NAME":"ONEWEB-0036","OBJECT_ID":"2020-008P","EPOCH":"2026-07-07T12:20:38.533632","CLASSIFICATION_TYPE":"U","MEAN_MOTION":13.10367803,"ECCENTRICITY":0.0001749,"INCLINATION":87.8831,"RA_OF_ASC_NODE":32.2356,"ARG_OF_PERICENTER":79.6453,"MEAN_ANOMALY":280.4871,"EPHEMERIS_TYPE":0,"NORAD_CAT_ID":45144,"ELEMENT_SET_NO":999,"REV_AT_EPOCH":31102,"BSTAR":-0.0017738,"MEAN_MOTION_DOT":-0.00000606,"MEAN_MOTION_DDOT":0},{"OBJECT_NAME":"ONEWEB-0038","OBJECT_ID":"2020-008Q","EPOCH":"2026-07-07T00:08:41.157888","CLASSIFICATION_TYPE":"U","MEAN_MOTION":13.11415121,"ECCENTRICITY":0.0001351,"INCLINATION":87.8894,"RA_OF_ASC_NODE":17.1332,"ARG_OF_PERICENTER":150.4353,"MEAN_ANOMALY":209.6851,"EPHEMERIS_TYPE":0,"NORAD_CAT_ID":45145,"ELEMENT_SET_NO":999,"REV_AT_EPOCH":31292,"BSTAR":-0.00098254,"MEAN_MOTION_DOT":-0.00000336,"MEAN_MOTION_DDOT":0},{"OBJECT_NAME":"ONEWEB-0039","OBJECT_ID":"2020-008R","EPOCH":"2026-07-06T23:38:27.831840","CLASSIFICATION_TYPE":"U","MEAN_MOTION":13.10372016,"ECCENTRICITY":0.0001368,"INCLINATION":87.8813,"RA_OF_ASC_NODE":32.3226,"ARG_OF_PERICENTER":71.8892,"MEAN_ANOMALY":288.2385,"EPHEMERIS_TYPE":0,"NORAD_CAT_ID":45146,"ELEMENT_SET_NO":999,"REV_AT_EPOCH":31075,"BSTAR":-0.00095344,"MEAN_MOTION_DOT":-0.0000032,"MEAN_MOTION_DDOT":0},{"OBJECT_NAME":"ONEWEB-0040","OBJECT_ID":"2020-008S","EPOCH":"2026-07-07T12:18:21.104064","CLASSIFICATION_TYPE":"U","MEAN_MOTION":13.10370338,"ECCENTRICITY":0.0001959,"INCLINATION":87.8814,"RA_OF_ASC_NODE":32.2279,"ARG_OF_PERICENTER":77.7458,"MEAN_ANOMALY":282.3889,"EPHEMERIS_TYPE":0,"NORAD_CAT_ID":45147,"ELEMENT_SET_NO":999,"REV_AT_EPOCH":31052,"BSTAR":-0.0017058,"MEAN_MOTION_DOT":-0.00000583,"MEAN_MOTION_DDOT":0},{"OBJECT_NAME":"ONEWEB-0043","OBJECT_ID":"2020-008U","EPOCH":"2026-07-07T12:21:01.134144","CLASSIFICATION_TYPE":"U","MEAN_MOTION":13.10366163,"ECCENTRICITY":0.0001455,"INCLINATION":87.8823,"RA_OF_ASC_NODE":32.2165,"ARG_OF_PERICENTER":73.0042,"MEAN_ANOMALY":287.1244,"EPHEMERIS_TYPE":0,"NORAD_CAT_ID":45149,"ELEMENT_SET_NO":999,"REV_AT_EPOCH":31084,"BSTAR":-0.0018004,"MEAN_MOTION_DOT":-0.00000616,"MEAN_MOTION_DDOT":0},{"OBJECT_NAME":"ONEWEB-0044","OBJECT_ID":"2020-008V","EPOCH":"2026-07-07T00:12:44.258112","CLASSIFICATION_TYPE":"U","MEAN_MOTION":13.10376751,"ECCENTRICITY":0.0001798,"INCLINATION":87.8828,"RA_OF_ASC_NODE":32.3184,"ARG_OF_PERICENTER":80.6655,"MEAN_ANOMALY":279.4676,"EPHEMERIS_TYPE":0,"NORAD_CAT_ID":45150,"ELEMENT_SET_NO":999,"REV_AT_EPOCH":31107,"BSTAR":0.0013612,"MEAN_MOTION_DOT":0.00000488,"MEAN_MOTION_DDOT":0},{"OBJECT_NAME":"ONEWEB-0045","OBJECT_ID":"2020-008W","EPOCH":"2026-07-07T11:00:22.341024","CLASSIFICATION_TYPE":"U","MEAN_MOTION":13.11414319,"ECCENTRICITY":0.0001715,"INCLINATION":87.8888,"RA_OF_ASC_NODE":17.0244,"ARG_OF_PERICENTER":89.4357,"MEAN_ANOMALY":270.6967,"EPHEMERIS_TYPE":0,"NORAD_CAT_ID":45151,"ELEMENT_SET_NO":999,"REV_AT_EPOCH":31306,"BSTAR":-0.00040182,"MEAN_MOTION_DOT":-0.0000013,"MEAN_MOTION_DDOT":0},{"OBJECT_NAME":"ONEWEB-0047","OBJECT_ID":"2020-008X","EPOCH":"2026-07-07T00:02:42.395712","CLASSIFICATION_TYPE":"U","MEAN_MOTION":13.10375864,"ECCENTRICITY":0.0001812,"INCLINATION":87.8828,"RA_OF_ASC_NODE":32.3193,"ARG_OF_PERICENTER":92.9107,"MEAN_ANOMALY":267.2228,"EPHEMERIS_TYPE":0,"NORAD_CAT_ID":45152,"ELEMENT_SET_NO":999,"REV_AT_EPOCH":31079,"BSTAR":0.00036126,"MEAN_MOTION_DOT":0.00000139,"MEAN_MOTION_DDOT":0},{"OBJECT_NAME":"ONEWEB-0048","OBJECT_ID":"2020-008Y","EPOCH":"2026-07-06T23:55:33.726432","CLASSIFICATION_TYPE":"U","MEAN_MOTION":13.10375907,"ECCENTRICITY":0.0001829,"INCLINATION":87.8821,"RA_OF_ASC_NODE":32.3396,"ARG_OF_PERICENTER":88.5028,"MEAN_ANOMALY":271.6309,"EPHEMERIS_TYPE":0,"NORAD_CAT_ID":45153,"ELEMENT_SET_NO":999,"REV_AT_EPOCH":31040,"BSTAR":-0.00098266,"MEAN_MOTION_DOT":-0.0000033,"MEAN_MOTION_DDOT":0},{"OBJECT_NAME":"ONEWEB-0049","OBJECT_ID":"2020-008Z","EPOCH":"2026-07-07T00:00:15.075072","CLASSIFICATION_TYPE":"U","MEAN_MOTION":13.10374759,"ECCENTRICITY":0.0002076,"INCLINATION":87.8818,"RA_OF_ASC_NODE":32.328,"ARG_OF_PERICENTER":75.2184,"MEAN_ANOMALY":284.9173,"EPHEMERIS_TYPE":0,"NORAD_CAT_ID":45154,"ELEMENT_SET_NO":999,"REV_AT_EPOCH":31062,"BSTAR":0.00021636,"MEAN_MOTION_DOT":8.8e-7,"MEAN_MOTION_DDOT":0},{"OBJECT_NAME":"ONEWEB-0051","OBJECT_ID":"2020-008AA","EPOCH":"2026-07-06T23:58:44.101056","CLASSIFICATION_TYPE":"U","MEAN_MOTION":13.11415711,"ECCENTRICITY":0.0001846,"INCLINATION":87.888,"RA_OF_ASC_NODE":17.122,"ARG_OF_PERICENTER":89.5782,"MEAN_ANOMALY":270.5558,"EPHEMERIS_TYPE":0,"NORAD_CAT_ID":45155,"ELEMENT_SET_NO":999,"REV_AT_EPOCH":31368,"BSTAR":-0.00032314,"MEAN_MOTION_DOT":-0.00000102,"MEAN_MOTION_DDOT":0},{"OBJECT_NAME":"ONEWEB-0052","OBJECT_ID":"2020-008AB","EPOCH":"2026-07-06T22:40:05.251872","CLASSIFICATION_TYPE":"U","MEAN_MOTION":13.10375102,"ECCENTRICITY":0.0001951,"INCLINATION":87.8821,"RA_OF_ASC_NODE":32.3263,"ARG_OF_PERICENTER":76.2835,"MEAN_ANOMALY":283.8509,"EPHEMERIS_TYPE":0,"NORAD_CAT_ID":45156,"ELEMENT_SET_NO":999,"REV_AT_EPOCH":31052,"BSTAR":0.0022988,"MEAN_MOTION_DOT":0.00000815,"MEAN_MOTION_DDOT":0},{"OBJECT_NAME":"ONEWEB-0053","OBJECT_ID":"2020-008AC","EPOCH":"2026-07-06T23:26:13.865568","CLASSIFICATION_TYPE":"U","MEAN_MOTION":13.10370475,"ECCENTRICITY":0.0001653,"INCLINATION":87.8816,"RA_OF_ASC_NODE":32.3404,"ARG_OF_PERICENTER":71.0861,"MEAN_ANOMALY":289.0446,"EPHEMERIS_TYPE":0,"NORAD_CAT_ID":45157,"ELEMENT_SET_NO":999,"REV_AT_EPOCH":31050,"BSTAR":-0.0016979,"MEAN_MOTION_DOT":-0.0000058,"MEAN_MOTION_DDOT":0},{"OBJECT_NAME":"ONEWEB-0054","OBJECT_ID":"2020-008AD","EPOCH":"2026-07-06T22:27:39.892032","CLASSIFICATION_TYPE":"U","MEAN_MOTION":13.10377029,"ECCENTRICITY":0.0001908,"INCLINATION":87.8827,"RA_OF_ASC_NODE":32.3334,"ARG_OF_PERICENTER":84.2379,"MEAN_ANOMALY":275.8966,"EPHEMERIS_TYPE":0,"NORAD_CAT_ID":45158,"ELEMENT_SET_NO":999,"REV_AT_EPOCH":31061,"BSTAR":0.0016941,"MEAN_MOTION_DOT":0.00000604,"MEAN_MOTION_DDOT":0}]}
